CCSDS_OMM_VERS = 2.0
CREATION_DATE  = 
ORIGINATOR     = 

OBJECT_NAME    = STARLINK-37215
OBJECT_ID      = 2026-063N
CENTER_NAME    = EARTH
REF_FRAME      = TEME
TIME_SYSTEM    = UTC
MEAN_ELEMENT_THEORY = SGP/SGP4

EPOCH          = 2026-04-05T12:00:02.998944
MEAN_MOTION    = 15.89052053
ECCENTRICITY   = .000171
INCLINATION    = 97.2816
RA_OF_ASC_NODE = 236.5176
ARG_OF_PERICENTER = 57.0773
MEAN_ANOMALY   = 47.2084

EPHEMERIS_TYPE = 0
CLASSIFICATION_TYPE = U
NORAD_CAT_ID   = 68392
ELEMENT_SET_NO = 999
REV_AT_EPOCH   = 276
BSTAR          = -.79362E-2
MEAN_MOTION_DOT = -.1923525E-1
MEAN_MOTION_DDOT = 0

CCSDS_OMM_VERS = 2.0
CREATION_DATE  = 
ORIGINATOR     = 

OBJECT_NAME    = STARLINK-37184
OBJECT_ID      = 2026-063P
CENTER_NAME    = EARTH
REF_FRAME      = TEME
TIME_SYSTEM    = UTC
MEAN_ELEMENT_THEORY = SGP/SGP4

EPOCH          = 2026-04-05T12:00:02.998944
MEAN_MOTION    = 15.89139173
ECCENTRICITY   = .0001679
INCLINATION    = 97.2815
RA_OF_ASC_NODE = 236.5197
ARG_OF_PERICENTER = 60.7034
MEAN_ANOMALY   = 47.3560

EPHEMERIS_TYPE = 0
CLASSIFICATION_TYPE = U
NORAD_CAT_ID   = 68393
ELEMENT_SET_NO = 999
REV_AT_EPOCH   = 276
BSTAR          = -.79019E-2
MEAN_MOTION_DOT = -.1923628E-1
MEAN_MOTION_DDOT = 0

CCSDS_OMM_VERS = 2.0
CREATION_DATE  = 
ORIGINATOR     = 

OBJECT_NAME    = STARLINK-37157
OBJECT_ID      = 2026-063Q
CENTER_NAME    = EARTH
REF_FRAME      = TEME
TIME_SYSTEM    = UTC
MEAN_ELEMENT_THEORY = SGP/SGP4

EPOCH          = 2026-04-05T12:00:02.998944
MEAN_MOTION    = 15.89270993
ECCENTRICITY   = .0001887
INCLINATION    = 97.2809
RA_OF_ASC_NODE = 236.5206
ARG_OF_PERICENTER = 52.0276
MEAN_ANOMALY   = 59.3762

EPHEMERIS_TYPE = 0
CLASSIFICATION_TYPE = U
NORAD_CAT_ID   = 68394
ELEMENT_SET_NO = 999
REV_AT_EPOCH   = 276
BSTAR          = -.78408E-2
MEAN_MOTION_DOT = -.2224216E-1
MEAN_MOTION_DDOT = .1296E-2

CCSDS_OMM_VERS = 2.0
CREATION_DATE  = 
ORIGINATOR     = 

OBJECT_NAME    = STARLINK-37172
OBJECT_ID      = 2026-063R
CENTER_NAME    = EARTH
REF_FRAME      = TEME
TIME_SYSTEM    = UTC
MEAN_ELEMENT_THEORY = SGP/SGP4

EPOCH          = 2026-04-05T12:00:02.998944
MEAN_MOTION    = 15.89494013
ECCENTRICITY   = .0001637
INCLINATION    = 97.2804
RA_OF_ASC_NODE = 236.5234
ARG_OF_PERICENTER = 62.9468
MEAN_ANOMALY   = 55.5952

EPHEMERIS_TYPE = 0
CLASSIFICATION_TYPE = U
NORAD_CAT_ID   = 68395
ELEMENT_SET_NO = 999
REV_AT_EPOCH   = 276
BSTAR          = -.77915E-2
MEAN_MOTION_DOT = -.2234744E-1
MEAN_MOTION_DDOT = .13106E-2

CCSDS_OMM_VERS = 2.0
CREATION_DATE  = 
ORIGINATOR     = 

OBJECT_NAME    = STARLINK-37190
OBJECT_ID      = 2026-063S
CENTER_NAME    = EARTH
REF_FRAME      = TEME
TIME_SYSTEM    = UTC
MEAN_ELEMENT_THEORY = SGP/SGP4

EPOCH          = 2026-04-05T12:00:02.998944
MEAN_MOTION    = 15.89391930
ECCENTRICITY   = .0001707
INCLINATION    = 97.2806
RA_OF_ASC_NODE = 236.5218
ARG_OF_PERICENTER = 55.2454
MEAN_ANOMALY   = 59.5615

EPHEMERIS_TYPE = 0
CLASSIFICATION_TYPE = U
NORAD_CAT_ID   = 68396
ELEMENT_SET_NO = 999
REV_AT_EPOCH   = 276
BSTAR          = -.77658E-2
MEAN_MOTION_DOT = -.2216284E-1
MEAN_MOTION_DDOT = .12888E-2

CCSDS_OMM_VERS = 2.0
CREATION_DATE  = 
ORIGINATOR     = 

OBJECT_NAME    = STARLINK-37194
OBJECT_ID      = 2026-063T
CENTER_NAME    = EARTH
REF_FRAME      = TEME
TIME_SYSTEM    = UTC
MEAN_ELEMENT_THEORY = SGP/SGP4

EPOCH          = 2026-04-05T12:00:02.998944
MEAN_MOTION    = 15.89603209
ECCENTRICITY   = .0001701
INCLINATION    = 97.2803
RA_OF_ASC_NODE = 236.5251
ARG_OF_PERICENTER = 57.1938
MEAN_ANOMALY   = 64.9203

EPHEMERIS_TYPE = 0
CLASSIFICATION_TYPE = U
NORAD_CAT_ID   = 68397
ELEMENT_SET_NO = 999
REV_AT_EPOCH   = 276
BSTAR          = -.77604E-2
MEAN_MOTION_DOT = -.2237965E-1
MEAN_MOTION_DDOT = .13157E-2

CCSDS_OMM_VERS = 2.0
CREATION_DATE  = 
ORIGINATOR     = 

OBJECT_NAME    = STARLINK-37220
OBJECT_ID      = 2026-063U
CENTER_NAME    = EARTH
REF_FRAME      = TEME
TIME_SYSTEM    = UTC
MEAN_ELEMENT_THEORY = SGP/SGP4

EPOCH          = 2026-04-05T12:00:02.998944
MEAN_MOTION    = 15.89837354
ECCENTRICITY   = .0001853
INCLINATION    = 97.2804
RA_OF_ASC_NODE = 236.5284
ARG_OF_PERICENTER = 59.3183
MEAN_ANOMALY   = 69.8715

EPHEMERIS_TYPE = 0
CLASSIFICATION_TYPE = U
NORAD_CAT_ID   = 68398
ELEMENT_SET_NO = 999
REV_AT_EPOCH   = 276
BSTAR          = -.7758E-2
MEAN_MOTION_DOT = -.2263444E-1
MEAN_MOTION_DDOT = .13476E-2

CCSDS_OMM_VERS = 2.0
CREATION_DATE  = 
ORIGINATOR     = 

OBJECT_NAME    = STARLINK-37187
OBJECT_ID      = 2026-063V
CENTER_NAME    = EARTH
REF_FRAME      = TEME
TIME_SYSTEM    = UTC
MEAN_ELEMENT_THEORY = SGP/SGP4

EPOCH          = 2026-04-05T12:00:02.998944
MEAN_MOTION    = 15.89700793
ECCENTRICITY   = .00022
INCLINATION    = 97.2802
RA_OF_ASC_NODE = 236.5272
ARG_OF_PERICENTER = 54.0312
MEAN_ANOMALY   = 71.5782

EPHEMERIS_TYPE = 0
CLASSIFICATION_TYPE = U
NORAD_CAT_ID   = 68399
ELEMENT_SET_NO = 999
REV_AT_EPOCH   = 276
BSTAR          = -.76494E-2
MEAN_MOTION_DOT = -.2217152E-1
MEAN_MOTION_DDOT = .12938E-2

CCSDS_OMM_VERS = 2.0
CREATION_DATE  = 
ORIGINATOR     = 

OBJECT_NAME    = STARLINK-36235
OBJECT_ID      = 2026-063W
CENTER_NAME    = EARTH
REF_FRAME      = TEME
TIME_SYSTEM    = UTC
MEAN_ELEMENT_THEORY = SGP/SGP4

EPOCH          = 2026-04-05T12:00:02.998944
MEAN_MOTION    = 15.89926711
ECCENTRICITY   = .000165
INCLINATION    = 97.2796
RA_OF_ASC_NODE = 236.5297
ARG_OF_PERICENTER = 66.4885
MEAN_ANOMALY   = 66.4925

EPHEMERIS_TYPE = 0
CLASSIFICATION_TYPE = U
NORAD_CAT_ID   = 68400
ELEMENT_SET_NO = 999
REV_AT_EPOCH   = 276
BSTAR          = -.77504E-2
MEAN_MOTION_DOT = -.2271212E-1
MEAN_MOTION_DDOT = .13577E-2

CCSDS_OMM_VERS = 2.0
CREATION_DATE  = 
ORIGINATOR     = 

OBJECT_NAME    = STARLINK-37175
OBJECT_ID      = 2026-063X
CENTER_NAME    = EARTH
REF_FRAME      = TEME
TIME_SYSTEM    = UTC
MEAN_ELEMENT_THEORY = SGP/SGP4

EPOCH          = 2026-04-05T12:00:02.998944
MEAN_MOTION    = 15.90021580
ECCENTRICITY   = .0001799
INCLINATION    = 97.2798
RA_OF_ASC_NODE = 236.5323
ARG_OF_PERICENTER = 61.3762
MEAN_ANOMALY   = 75.3462

EPHEMERIS_TYPE = 0
CLASSIFICATION_TYPE = U
NORAD_CAT_ID   = 68401
ELEMENT_SET_NO = 999
REV_AT_EPOCH   = 276
BSTAR          = -.77512E-2
MEAN_MOTION_DOT = -.2282234E-1
MEAN_MOTION_DDOT = .13717E-2

CCSDS_OMM_VERS = 2.0
CREATION_DATE  = 
ORIGINATOR     = 

OBJECT_NAME    = STARLINK-36360
OBJECT_ID      = 2026-063Y
CENTER_NAME    = EARTH
REF_FRAME      = TEME
TIME_SYSTEM    = UTC
MEAN_ELEMENT_THEORY = SGP/SGP4

EPOCH          = 2026-04-05T12:00:02.998944
MEAN_MOTION    = 15.90134727
ECCENTRICITY   = .0001858
INCLINATION    = 97.2796
RA_OF_ASC_NODE = 236.5336
ARG_OF_PERICENTER = 68.2751
MEAN_ANOMALY   = 72.1154

EPHEMERIS_TYPE = 0
CLASSIFICATION_TYPE = U
NORAD_CAT_ID   = 68402
ELEMENT_SET_NO = 999
REV_AT_EPOCH   = 276
BSTAR          = -.78215E-2
MEAN_MOTION_DOT = -.2315727E-1
MEAN_MOTION_DDOT = .14121E-2

CCSDS_OMM_VERS = 2.0
CREATION_DATE  = 
ORIGINATOR     = 

OBJECT_NAME    = STARLINK-37218
OBJECT_ID      = 2026-063Z
CENTER_NAME    = EARTH
REF_FRAME      = TEME
TIME_SYSTEM    = UTC
MEAN_ELEMENT_THEORY = SGP/SGP4

EPOCH          = 2026-04-05T12:00:02.998944
MEAN_MOTION    = 15.90362952
ECCENTRICITY   = .0001916
INCLINATION    = 97.2800
RA_OF_ASC_NODE = 236.5375
ARG_OF_PERICENTER = 61.0493
MEAN_ANOMALY   = 86.2415

EPHEMERIS_TYPE = 0
CLASSIFICATION_TYPE = U
NORAD_CAT_ID   = 68403
ELEMENT_SET_NO = 999
REV_AT_EPOCH   = 276
BSTAR          = -.77178E-2
MEAN_MOTION_DOT = -.2311493E-1
MEAN_MOTION_DDOT = .14105E-2

