STARLINK-37215          
1 68392U 26063N   26095.50003471 -.01923525  00000+0 -79362-2 0  9994
2 68392  97.2816 236.5176 0001710  57.0773  47.2084 15.89052053  2769
STARLINK-37184          
1 68393U 26063P   26095.50003471 -.01923628  00000+0 -79019-2 0  9998
2 68393  97.2815 236.5197 0001679  60.7034  47.3560 15.89139173  2766
STARLINK-37157          
1 68394U 26063Q   26095.50003471 -.02224216  12960-2 -78408-2 0  9999
2 68394  97.2809 236.5206 0001887  52.0276  59.3762 15.89270993  2767
STARLINK-37172          
1 68395U 26063R   26095.50003471 -.02234744  13106-2 -77915-2 0  9992
2 68395  97.2804 236.5234 0001637  62.9468  55.5952 15.89494013  2760
STARLINK-37190          
1 68396U 26063S   26095.50003471 -.02216284  12888-2 -77658-2 0  9992
2 68396  97.2806 236.5218 0001707  55.2454  59.5615 15.89391930  2767
STARLINK-37194          
1 68397U 26063T   26095.50003471 -.02237965  13157-2 -77604-2 0  9993
2 68397  97.2803 236.5251 0001701  57.1938  64.9203 15.89603209  2762
STARLINK-37220          
1 68398U 26063U   26095.50003471 -.02263444  13476-2 -77580-2 0  9992
2 68398  97.2804 236.5284 0001853  59.3183  69.8715 15.89837354  2766
STARLINK-37187          
1 68399U 26063V   26095.50003471 -.02217152  12938-2 -76494-2 0  9993
2 68399  97.2802 236.5272 0002200  54.0312  71.5782 15.89700793  2765
STARLINK-36235          
1 68400U 26063W   26095.50003471 -.02271212  13577-2 -77504-2 0  9996
2 68400  97.2796 236.5297 0001650  66.4885  66.4925 15.89926711  2769
STARLINK-37175          
1 68401U 26063X   26095.50003471 -.02282234  13717-2 -77512-2 0  9998
2 68401  97.2798 236.5323 0001799  61.3762  75.3462 15.90021580  2761
STARLINK-36360          
1 68402U 26063Y   26095.50003471 -.02315727  14121-2 -78215-2 0  9994
2 68402  97.2796 236.5336 0001858  68.2751  72.1154 15.90134727  2765
STARLINK-37218          
1 68403U 26063Z   26095.50003471 -.02311493  14105-2 -77178-2 0  9990
2 68403  97.2800 236.5375 0001916  61.0493  86.2415 15.90362952  2763
